{
    "links": {
        "self": "http://www.neowsapp.com/rest/v1/neo/3753788?api_key=iIulBulltgU6a56xZRHN4H3l9WmuAYTsLGpBGhQ2"
    },
    "id": "3753788",
    "neo_reference_id": "3753788",
    "name": "(2016 LZ8)",
    "designation": "2016 LZ8",
    "nasa_jpl_url": "http://ssd.jpl.nasa.gov/sbdb.cgi?sstr=3753788",
    "absolute_magnitude_h": 24.8,
    "estimated_diameter": {
        "kilometers": {
            "estimated_diameter_min": 0.0291443905,
            "estimated_diameter_max": 0.0651688382
        },
        "meters": {
            "estimated_diameter_min": 29.1443904535,
            "estimated_diameter_max": 65.1688382168
        },
        "miles": {
            "estimated_diameter_min": 0.018109479,
            "estimated_diameter_max": 0.0404940262
        },
        "feet": {
            "estimated_diameter_min": 95.6180819754,
            "estimated_diameter_max": 213.8085311752
        }
    },
    "is_potentially_hazardous_asteroid": false,
    "close_approach_data": [
        {
            "close_approach_date": "2016-07-01",
            "close_approach_date_full": "2016-Jul-01 21:01",
            "epoch_date_close_approach": 1467406860000,
            "relative_velocity": {
                "kilometers_per_second": "7.2405472743",
                "kilometers_per_hour": "26065.9701873881",
                "miles_per_hour": "16196.3801978246"
            },
            "miss_distance": {
                "astronomical": "0.0586790127",
                "lunar": "22.8261359403",
                "kilometers": "8778255.313622949",
                "miles": "5454554.9208127362"
            },
            "orbiting_body": "Earth"
        }
    ],
    "orbital_data": {
        "orbit_id": "12",
        "orbit_determination_date": "2017-04-06 08:25:31",
        "first_observation_date": "2016-06-05",
        "last_observation_date": "2016-07-08",
        "data_arc_in_days": 33,
        "observations_used": 39,
        "orbit_uncertainty": "7",
        "minimum_orbit_intersection": ".0461924",
        "jupiter_tisserand_invariant": "3.422",
        "epoch_osculation": "2459000.5",
        "eccentricity": ".530624191266742",
        "semi_major_axis": "2.255235518382032",
        "inclination": "2.795779994459103",
        "ascending_node_longitude": "90.69179444620492",
        "orbital_period": "1237.047229576047",
        "perihelion_distance": "1.058552995324535",
        "perihelion_argument": "203.0321770294319",
        "aphelion_distance": "3.45191804143953",
        "perihelion_time": "2458819.389201302820",
        "mean_anomaly": "52.70606163786476",
        "mean_motion": ".2910155662556045",
        "equinox": "J2000",
        "orbit_class": {
            "orbit_class_type": "AMO",
            "orbit_class_description": "Near-Earth asteroid orbits similar to that of 1221 Amor",
            "orbit_class_range": "1.017 AU < q (perihelion) < 1.3 AU"
        }
    },
    "is_sentry_object": false
}